[{"OBJECT_NAME":"JILIN-1 04","OBJECT_ID":"2017-074A","EPOCH":"2026-03-09T22:33:08.511840","MEAN_MOTION":15.3972107,"ECCENTRICITY":0.00044895,"INCLINATION":97.4764,"RA_OF_ASC_NODE":176.1669,"ARG_OF_PERICENTER":177.2975,"MEAN_ANOMALY":182.8296,"EPHEMERIS_TYPE":0,"CLASSIFICATION_TYPE":"U","NORAD_CAT_ID":43022,"ELEMENT_SET_NO":999,"REV_AT_EPOCH":45898,"BSTAR":0.00041511645,"MEAN_MOTION_DOT":0.00016346,"MEAN_MOTION_DDOT":0},{"OBJECT_NAME":"GRACE-FO 2","OBJECT_ID":"2018-047B","EPOCH":"2026-03-09T22:18:30.629952","MEAN_MOTION":15.37442345,"ECCENTRICITY":0.00130795,"INCLINATION":88.9902,"RA_OF_ASC_NODE":211.5805,"ARG_OF_PERICENTER":129.3432,"MEAN_ANOMALY":230.8984,"EPHEMERIS_TYPE":0,"CLASSIFICATION_TYPE":"U","NORAD_CAT_ID":43477,"ELEMENT_SET_NO":999,"REV_AT_EPOCH":43454,"BSTAR":0.00017253527,"MEAN_MOTION_DOT":6.378e-5,"MEAN_MOTION_DDOT":0}]
